ONEWEB-0239             
1 48802U 21045AM  26054.10884370 -.00000042  00000+0 -14614-3 0  9998
2 48802  87.8955 281.9855 0001807 113.9204 246.2116 13.15546944229344
ONEWEB-0249             
1 48967U 21060A   26054.05744796  .00000123  00000+0  28834-3 0  9995
2 48967  87.8997 251.4882 0001662  95.7933 264.3388 13.16592737224595
ONEWEB-0250             
1 48968U 21060B   26054.27544085 -.00000031  00000+0 -10007-3 0  9992
2 48968  87.8995 249.5719 0002654  96.5781 263.5658 13.25826729225125
ONEWEB-0252             
1 48970U 21060D   26054.24030938  .00000014  00000+0  20681-5 0  9999
2 48970  87.8994 251.4448 0001347  91.7629 268.3656 13.16592577224664
ONEWEB-0253             
1 48971U 21060E   26054.07723462  .00000113  00000+0  26134-3 0  9999
2 48971  87.8999 251.4829 0001525  98.4505 261.6798 13.16596086224570
ONEWEB-0254             
1 48972U 21060F   26054.23872576  .00000055  00000+0  11122-3 0  9995
2 48972  87.9000 251.4447 0001720 103.8434 256.2889 13.16595830224599
ONEWEB-0255             
1 48973U 21060G   26054.04874361  .00000039  00000+0  68029-4 0  9990
2 48973  87.8991 251.4926 0001620 100.3836 259.7478 13.16595951224649
ONEWEB-0256             
1 48974U 21060H   26054.07486139  .00000026  00000+0  33357-4 0  9998
2 48974  87.8996 251.4940 0001537  87.6006 272.5301 13.16592339224616
ONEWEB-0257             
1 48975U 21060J   26054.25930754 -.00000040  00000+0 -13757-3 0  9995
2 48975  87.8994 251.4408 0001488  96.9088 263.2213 13.16595554224590
ONEWEB-0258             
1 48976U 21060K   26054.10890330  .00000004  00000+0 -22029-4 0  9997
2 48976  87.8995 251.4828 0001663  92.3297 267.8025 13.16595399224582
ONEWEB-0259             
1 48977U 21060L   26054.25455617  .00000003  00000+0 -25534-4 0  9992
2 48977  87.8998 251.4523 0001676  99.6334 260.4986 13.16596167224639
ONEWEB-0260             
1 48978U 21060M   26054.24585181  .00000029  00000+0  43486-4 0  9995
2 48978  87.8997 251.4603 0001230  83.5284 276.5987 13.16593305224618
ONEWEB-0261             
1 48979U 21060N   26054.06377000  .00000070  00000+0  15058-3 0  9994
2 48979  87.8982 251.4979 0001435 106.7009 253.4280 13.16596372224649
ONEWEB-0262             
1 48980U 21060P   26054.27197900 -.00000076  00000+0 -23359-3 0  9999
2 48980  87.8995 251.4370 0001849  98.9118 261.2223 13.16595194224636
ONEWEB-0263             
1 48981U 21060Q   26054.07564344  .00000040  00000+0  71886-4 0  9996
2 48981  87.8994 251.4876 0001563 106.5052 253.6251 13.16596177224574
ONEWEB-0264             
1 48982U 21060R   26054.26485282 -.00000129  00000+0 -37191-3 0  9991
2 48982  87.8995 251.4537 0001348  95.6002 264.5283 13.16594760224600
ONEWEB-0266             
1 48984U 21060T   26054.05823680  .00000084  00000+0  18708-3 0  9999
2 48984  87.8998 251.4840 0001747  93.6780 266.4551 13.16595866224568
