[{"OBJECT_NAME":"ONEWEB-0239","OBJECT_ID":"2021-045AM","EPOCH":"2026-02-23T02:36:44.095680","MEAN_MOTION":13.15546944,"ECCENTRICITY":0.00018077,"INCLINATION":87.8955,"RA_OF_ASC_NODE":281.9855,"ARG_OF_PERICENTER":113.9204,"MEAN_ANOMALY":246.2116,"EPHEMERIS_TYPE":0,"CLASSIFICATION_TYPE":"U","NORAD_CAT_ID":48802,"ELEMENT_SET_NO":999,"REV_AT_EPOCH":22934,"BSTAR":-0.00014613862,"MEAN_MOTION_DOT":-4.2e-7,"MEAN_MOTION_DDOT":0},{"OBJECT_NAME":"ONEWEB-0249","OBJECT_ID":"2021-060A","EPOCH":"2026-02-23T01:22:43.503744","MEAN_MOTION":13.16592737,"ECCENTRICITY":0.00016623,"INCLINATION":87.8997,"RA_OF_ASC_NODE":251.4882,"ARG_OF_PERICENTER":95.7933,"MEAN_ANOMALY":264.3388,"EPHEMERIS_TYPE":0,"CLASSIFICATION_TYPE":"U","NORAD_CAT_ID":48967,"ELEMENT_SET_NO":999,"REV_AT_EPOCH":22459,"BSTAR":0.00028833778,"MEAN_MOTION_DOT":1.23e-6,"MEAN_MOTION_DDOT":0},{"OBJECT_NAME":"ONEWEB-0250","OBJECT_ID":"2021-060B","EPOCH":"2026-02-23T06:36:38.089440","MEAN_MOTION":13.25826729,"ECCENTRICITY":0.00026544,"INCLINATION":87.8995,"RA_OF_ASC_NODE":249.5719,"ARG_OF_PERICENTER":96.5781,"MEAN_ANOMALY":263.5658,"EPHEMERIS_TYPE":0,"CLASSIFICATION_TYPE":"U","NORAD_CAT_ID":48968,"ELEMENT_SET_NO":999,"REV_AT_EPOCH":22512,"BSTAR":-0.00010007476,"MEAN_MOTION_DOT":-3.1e-7,"MEAN_MOTION_DDOT":0},{"OBJECT_NAME":"ONEWEB-0252","OBJECT_ID":"2021-060D","EPOCH":"2026-02-23T05:46:02.730432","MEAN_MOTION":13.16592577,"ECCENTRICITY":0.00013471,"INCLINATION":87.8994,"RA_OF_ASC_NODE":251.4448,"ARG_OF_PERICENTER":91.7629,"MEAN_ANOMALY":268.3656,"EPHEMERIS_TYPE":0,"CLASSIFICATION_TYPE":"U","NORAD_CAT_ID":48970,"ELEMENT_SET_NO":999,"REV_AT_EPOCH":22466,"BSTAR":2.068107e-6,"MEAN_MOTION_DOT":1.4e-7,"MEAN_MOTION_DDOT":0},{"OBJECT_NAME":"ONEWEB-0253","OBJECT_ID":"2021-060E","EPOCH":"2026-02-23T01:51:13.071168","MEAN_MOTION":13.16596086,"ECCENTRICITY":0.00015258,"INCLINATION":87.8999,"RA_OF_ASC_NODE":251.4829,"ARG_OF_PERICENTER":98.4505,"MEAN_ANOMALY":261.6798,"EPHEMERIS_TYPE":0,"CLASSIFICATION_TYPE":"U","NORAD_CAT_ID":48971,"ELEMENT_SET_NO":999,"REV_AT_EPOCH":22457,"BSTAR":0.00026133872,"MEAN_MOTION_DOT":1.13e-6,"MEAN_MOTION_DDOT":0},{"OBJECT_NAME":"ONEWEB-0254","OBJECT_ID":"2021-060F","EPOCH":"2026-02-23T05:43:45.905664","MEAN_MOTION":13.1659583,"ECCENTRICITY":0.000172,"INCLINATION":87.9,"RA_OF_ASC_NODE":251.4447,"ARG_OF_PERICENTER":103.8434,"MEAN_ANOMALY":256.2889,"EPHEMERIS_TYPE":0,"CLASSIFICATION_TYPE":"U","NORAD_CAT_ID":48972,"ELEMENT_SET_NO":999,"REV_AT_EPOCH":22459,"BSTAR":0.00011122127,"MEAN_MOTION_DOT":5.5e-7,"MEAN_MOTION_DDOT":0},{"OBJECT_NAME":"ONEWEB-0255","OBJECT_ID":"2021-060G","EPOCH":"2026-02-23T01:10:11.447904","MEAN_MOTION":13.16595951,"ECCENTRICITY":0.00016208,"INCLINATION":87.8991,"RA_OF_ASC_NODE":251.4926,"ARG_OF_PERICENTER":100.3836,"MEAN_ANOMALY":259.7478,"EPHEMERIS_TYPE":0,"CLASSIFICATION_TYPE":"U","NORAD_CAT_ID":48973,"ELEMENT_SET_NO":999,"REV_AT_EPOCH":22464,"BSTAR":6.8029304e-5,"MEAN_MOTION_DOT":3.9e-7,"MEAN_MOTION_DDOT":0},{"OBJECT_NAME":"ONEWEB-0256","OBJECT_ID":"2021-060H","EPOCH":"2026-02-23T01:47:48.024096","MEAN_MOTION":13.16592339,"ECCENTRICITY":0.00015376,"INCLINATION":87.8996,"RA_OF_ASC_NODE":251.494,"ARG_OF_PERICENTER":87.6006,"MEAN_ANOMALY":272.5301,"EPHEMERIS_TYPE":0,"CLASSIFICATION_TYPE":"U","NORAD_CAT_ID":48974,"ELEMENT_SET_NO":999,"REV_AT_EPOCH":22461,"BSTAR":3.3357206e-5,"MEAN_MOTION_DOT":2.6e-7,"MEAN_MOTION_DDOT":0},{"OBJECT_NAME":"ONEWEB-0257","OBJECT_ID":"2021-060J","EPOCH":"2026-02-23T06:13:24.171456","MEAN_MOTION":13.16595554,"ECCENTRICITY":0.00014882,"INCLINATION":87.8994,"RA_OF_ASC_NODE":251.4408,"ARG_OF_PERICENTER":96.9088,"MEAN_ANOMALY":263.2213,"EPHEMERIS_TYPE":0,"CLASSIFICATION_TYPE":"U","NORAD_CAT_ID":48975,"ELEMENT_SET_NO":999,"REV_AT_EPOCH":22459,"BSTAR":-0.00013757017,"MEAN_MOTION_DOT":-4.0e-7,"MEAN_MOTION_DDOT":0},{"OBJECT_NAME":"ONEWEB-0258","OBJECT_ID":"2021-060K","EPOCH":"2026-02-23T02:36:49.245120","MEAN_MOTION":13.16595399,"ECCENTRICITY":0.00016638,"INCLINATION":87.8995,"RA_OF_ASC_NODE":251.4828,"ARG_OF_PERICENTER":92.3297,"MEAN_ANOMALY":267.8025,"EPHEMERIS_TYPE":0,"CLASSIFICATION_TYPE":"U","NORAD_CAT_ID":48976,"ELEMENT_SET_NO":999,"REV_AT_EPOCH":22458,"BSTAR":-2.2029121e-5,"MEAN_MOTION_DOT":4.0e-8,"MEAN_MOTION_DDOT":0},{"OBJECT_NAME":"ONEWEB-0259","OBJECT_ID":"2021-060L","EPOCH":"2026-02-23T06:06:33.653088","MEAN_MOTION":13.16596167,"ECCENTRICITY":0.00016762,"INCLINATION":87.8998,"RA_OF_ASC_NODE":251.4523,"ARG_OF_PERICENTER":99.6334,"MEAN_ANOMALY":260.4986,"EPHEMERIS_TYPE":0,"CLASSIFICATION_TYPE":"U","NORAD_CAT_ID":48977,"ELEMENT_SET_NO":999,"REV_AT_EPOCH":22463,"BSTAR":-2.553438e-5,"MEAN_MOTION_DOT":3.0e-8,"MEAN_MOTION_DDOT":0},{"OBJECT_NAME":"ONEWEB-0260","OBJECT_ID":"2021-060M","EPOCH":"2026-02-23T05:54:01.596384","MEAN_MOTION":13.16593305,"ECCENTRICITY":0.00012301,"INCLINATION":87.8997,"RA_OF_ASC_NODE":251.4603,"ARG_OF_PERICENTER":83.5284,"MEAN_ANOMALY":276.5987,"EPHEMERIS_TYPE":0,"CLASSIFICATION_TYPE":"U","NORAD_CAT_ID":48978,"ELEMENT_SET_NO":999,"REV_AT_EPOCH":22461,"BSTAR":4.3485875e-5,"MEAN_MOTION_DOT":2.9e-7,"MEAN_MOTION_DDOT":0},{"OBJECT_NAME":"ONEWEB-0261","OBJECT_ID":"2021-060N","EPOCH":"2026-02-23T01:31:49.728000","MEAN_MOTION":13.16596372,"ECCENTRICITY":0.00014359,"INCLINATION":87.8982,"RA_OF_ASC_NODE":251.4979,"ARG_OF_PERICENTER":106.7009,"MEAN_ANOMALY":253.428,"EPHEMERIS_TYPE":0,"CLASSIFICATION_TYPE":"U","NORAD_CAT_ID":48979,"ELEMENT_SET_NO":999,"REV_AT_EPOCH":22464,"BSTAR":0.00015058484,"MEAN_MOTION_DOT":7.0e-7,"MEAN_MOTION_DDOT":0},{"OBJECT_NAME":"ONEWEB-0262","OBJECT_ID":"2021-060P","EPOCH":"2026-02-23T06:31:38.985600","MEAN_MOTION":13.16595194,"ECCENTRICITY":0.00018498,"INCLINATION":87.8995,"RA_OF_ASC_NODE":251.437,"ARG_OF_PERICENTER":98.9118,"MEAN_ANOMALY":261.2223,"EPHEMERIS_TYPE":0,"CLASSIFICATION_TYPE":"U","NORAD_CAT_ID":48980,"ELEMENT_SET_NO":999,"REV_AT_EPOCH":22463,"BSTAR":-0.00023358938,"MEAN_MOTION_DOT":-7.6e-7,"MEAN_MOTION_DDOT":0},{"OBJECT_NAME":"ONEWEB-0263","OBJECT_ID":"2021-060Q","EPOCH":"2026-02-23T01:48:55.593216","MEAN_MOTION":13.16596177,"ECCENTRICITY":0.00015636,"INCLINATION":87.8994,"RA_OF_ASC_NODE":251.4876,"ARG_OF_PERICENTER":106.5052,"MEAN_ANOMALY":253.6251,"EPHEMERIS_TYPE":0,"CLASSIFICATION_TYPE":"U","NORAD_CAT_ID":48981,"ELEMENT_SET_NO":999,"REV_AT_EPOCH":22457,"BSTAR":7.1885869e-5,"MEAN_MOTION_DOT":4.0e-7,"MEAN_MOTION_DDOT":0},{"OBJECT_NAME":"ONEWEB-0264","OBJECT_ID":"2021-060R","EPOCH":"2026-02-23T06:21:23.283648","MEAN_MOTION":13.1659476,"ECCENTRICITY":0.00013486,"INCLINATION":87.8995,"RA_OF_ASC_NODE":251.4537,"ARG_OF_PERICENTER":95.6002,"MEAN_ANOMALY":264.5283,"EPHEMERIS_TYPE":0,"CLASSIFICATION_TYPE":"U","NORAD_CAT_ID":48982,"ELEMENT_SET_NO":999,"REV_AT_EPOCH":22460,"BSTAR":-0.00037190589,"MEAN_MOTION_DOT":-1.29e-6,"MEAN_MOTION_DDOT":0},{"OBJECT_NAME":"ONEWEB-0266","OBJECT_ID":"2021-060T","EPOCH":"2026-02-23T01:23:51.659520","MEAN_MOTION":13.16595866,"ECCENTRICITY":0.00017479,"INCLINATION":87.8998,"RA_OF_ASC_NODE":251.484,"ARG_OF_PERICENTER":93.678,"MEAN_ANOMALY":266.4551,"EPHEMERIS_TYPE":0,"CLASSIFICATION_TYPE":"U","NORAD_CAT_ID":48984,"ELEMENT_SET_NO":999,"REV_AT_EPOCH":22456,"BSTAR":0.00018708272,"MEAN_MOTION_DOT":8.4e-7,"MEAN_MOTION_DDOT":0}]
